{
  "type": "FeatureCollection",
  "features": [
    {
      "type": "Feature",
      "properties": {
        "norad_id": 27954,
        "name": "GALAXY 13 (HORIZONS-1)",
        "group": "intelsat",
        "lat": 0.20534362889751723,
        "lon": -107.56769574453917,
        "alt_km": 35777.93636364202,
        "timestamp": "2025-12-09T21:34:11.074574+00:00",
        "meta_object_name": "GALAXY 13 (HORIZONS-1)",
        "meta_object_id": "2003-044A",
        "meta_epoch": "2025-12-09T14:04:00.761952",
        "meta_mean_motion": 1.00270127,
        "meta_eccentricity": 0.00020235,
        "meta_inclination": 0.9273,
        "meta_ra_of_asc_node": 86.5108,
        "meta_arg_of_pericenter": 162.3964,
        "meta_mean_anomaly": 250.6744,
        "meta_ephemeris_type": 0,
        "meta_classification_type": "U",
        "meta_norad_cat_id": 27954,
        "meta_element_set_no": 999,
        "meta_rev_at_epoch": 4467,
        "meta_bstar": 0,
        "meta_mean_motion_dot": 1.35e-06,
        "meta_mean_motion_ddot": 0,
        "tle_line1": "1 27954U 03044A   25343.58611993  .00000135  00000+0  00000+0 0  9994",
        "tle_line2": "2 27954   0.9273  86.5108 0002023 162.3964 250.6744  1.00270127 44675"
      },
      "geometry": {
        "type": "Point",
        "coordinates": [
          -107.56769574453917,
          0.20534362889751723
        ]
      }
    },
    {
      "type": "Feature",
      "properties": {
        "norad_id": 28358,
        "name": "INTELSAT 10-02",
        "group": "intelsat",
        "lat": 0.0011425969244931668,
        "lon": 41.461221017486196,
        "alt_km": 35788.76505951206,
        "timestamp": "2025-12-09T21:34:11.074586+00:00",
        "meta_object_name": "INTELSAT 10-02",
        "meta_object_id": "2004-022A",
        "meta_epoch": "2025-12-09T13:34:07.706208",
        "meta_mean_motion": 1.00269981,
        "meta_eccentricity": 0.00011153,
        "meta_inclination": 0.0308,
        "meta_ra_of_asc_node": 72.1506,
        "meta_arg_of_pericenter": 211.8162,
        "meta_mean_anomaly": 357.1457,
        "meta_ephemeris_type": 0,
        "meta_classification_type": "U",
        "meta_norad_cat_id": 28358,
        "meta_element_set_no": 999,
        "meta_rev_at_epoch": 7865,
        "meta_bstar": 0,
        "meta_mean_motion_dot": -9e-08,
        "meta_mean_motion_ddot": 0,
        "tle_line1": "1 28358U 04022A   25343.56536697 -.00000009  00000+0  00000+0 0  9996",
        "tle_line2": "2 28358   0.0308  72.1506 0001115 211.8162 357.1457  1.00269981 78653"
      },
      "geometry": {
        "type": "Point",
        "coordinates": [
          41.461221017486196,
          0.0011425969244931668
        ]
      }
    },
    {
      "type": "Feature",
      "properties": {
        "norad_id": 28626,
        "name": "XM-3 (RHYTHM)",
        "group": "intelsat",
        "lat": 0.1632747738532744,
        "lon": 170.23596278095033,
        "alt_km": 36165.530851768766,
        "timestamp": "2025-12-09T21:34:11.074599+00:00",
        "meta_object_name": "XM-3 (RHYTHM)",
        "meta_object_id": "2005-008A",
        "meta_epoch": "2025-12-09T12:28:36.481152",
        "meta_mean_motion": 0.989537,
        "meta_eccentricity": 0.00013754,
        "meta_inclination": 0.1665,
        "meta_ra_of_asc_node": 81.2047,
        "meta_arg_of_pericenter": 264.6895,
        "meta_mean_anomaly": 49.3764,
        "meta_ephemeris_type": 0,
        "meta_classification_type": "U",
        "meta_norad_cat_id": 28626,
        "meta_element_set_no": 999,
        "meta_rev_at_epoch": 4071,
        "meta_bstar": 0,
        "meta_mean_motion_dot": -2.38e-06,
        "meta_mean_motion_ddot": 0,
        "tle_line1": "1 28626U 05008A   25343.51986668 -.00000238  00000+0  00000+0 0  9995",
        "tle_line2": "2 28626   0.1665  81.2047 0001375 264.6895  49.3764  0.98953700 40718"
      },
      "geometry": {
        "type": "Point",
        "coordinates": [
          170.23596278095033,
          0.1632747738532744
        ]
      }
    },
    {
      "type": "Feature",
      "properties": {
        "norad_id": 28659,
        "name": "DIRECTV 8",
        "group": "intelsat",
        "lat": -0.034222424539131845,
        "lon": -76.60533410206017,
        "alt_km": 35773.410692085126,
        "timestamp": "2025-12-09T21:34:11.074610+00:00",
        "meta_object_name": "DIRECTV 8",
        "meta_object_id": "2005-019A",
        "meta_epoch": "2025-12-09T12:12:55.941120",
        "meta_mean_motion": 1.00271942,
        "meta_eccentricity": 0.00031831,
        "meta_inclination": 0.0171,
        "meta_ra_of_asc_node": 5.5935,
        "meta_arg_of_pericenter": 257.2096,
        "meta_mean_anomaly": 239.8843,
        "meta_ephemeris_type": 0,
        "meta_classification_type": "U",
        "meta_norad_cat_id": 28659,
        "meta_element_set_no": 999,
        "meta_rev_at_epoch": 7517,
        "meta_bstar": 0,
        "meta_mean_motion_dot": 3e-08,
        "meta_mean_motion_ddot": 0,
        "tle_line1": "1 28659U 05019A   25343.50898080  .00000003  00000+0  00000+0 0  9991",
        "tle_line2": "2 28659   0.0171   5.5935 0003183 257.2096 239.8843  1.00271942 75177"
      },
      "geometry": {
        "type": "Point",
        "coordinates": [
          -76.60533410206017,
          -0.034222424539131845
        ]
      }
    },
    {
      "type": "Feature",
      "properties": {
        "norad_id": 28702,
        "name": "GALAXY 28 (G-28)",
        "group": "intelsat",
        "lat": -2.2400973539673785,
        "lon": -46.26457450890465,
        "alt_km": 35779.69622040337,
        "timestamp": "2025-12-09T21:34:11.074622+00:00",
        "meta_object_name": "GALAXY 28 (G-28)",
        "meta_object_id": "2005-022A",
        "meta_epoch": "2025-12-09T12:29:48.392736",
        "meta_mean_motion": 1.00271081,
        "meta_eccentricity": 0.00026859,
        "meta_inclination": 2.8104,
        "meta_ra_of_asc_node": 81.3192,
        "meta_arg_of_pericenter": 179.8142,
        "meta_mean_anomaly": 276.1436,
        "meta_ephemeris_type": 0,
        "meta_classification_type": "U",
        "meta_norad_cat_id": 28702,
        "meta_element_set_no": 999,
        "meta_rev_at_epoch": 5007,
        "meta_bstar": 0,
        "meta_mean_motion_dot": -1.85e-06,
        "meta_mean_motion_ddot": 0,
        "tle_line1": "1 28702U 05022A   25343.52069899 -.00000185  00000+0  00000+0 0  9996",
        "tle_line2": "2 28702   2.8104  81.3192 0002685 179.8142 276.1436  1.00271081 50074"
      },
      "geometry": {
        "type": "Point",
        "coordinates": [
          -46.26457450890465,
          -2.2400973539673785
        ]
      }
    },
    {
      "type": "Feature",
      "properties": {
        "norad_id": 29236,
        "name": "GALAXY 16 (G-16)",
        "group": "intelsat",
        "lat": -0.016404760802194506,
        "lon": -56.55980284823406,
        "alt_km": 35778.44191276307,
        "timestamp": "2025-12-09T21:34:11.074633+00:00",
        "meta_object_name": "GALAXY 16 (G-16)",
        "meta_object_id": "2006-023A",
        "meta_epoch": "2025-12-09T13:15:09.203040",
        "meta_mean_motion": 1.002722,
        "meta_eccentricity": 0.0002825,
        "meta_inclination": 0.037,
        "meta_ra_of_asc_node": 155.0146,
        "meta_arg_of_pericenter": 97.4048,
        "meta_mean_anomaly": 285.8988,
        "meta_ephemeris_type": 0,
        "meta_classification_type": "U",
        "meta_norad_cat_id": 29236,
        "meta_element_set_no": 999,
        "meta_rev_at_epoch": 7107,
        "meta_bstar": 0,
        "meta_mean_motion_dot": -1.24e-06,
        "meta_mean_motion_ddot": 0,
        "tle_line1": "1 29236U 06023A   25343.55218985 -.00000124  00000+0  00000+0 0  9999",
        "tle_line2": "2 29236   0.0370 155.0146 0002825  97.4048 285.8988  1.00272200 71072"
      },
      "geometry": {
        "type": "Point",
        "coordinates": [
          -56.55980284823406,
          -0.016404760802194506
        ]
      }
    },
    {
      "type": "Feature",
      "properties": {
        "norad_id": 29494,
        "name": "DIRECTV 9S",
        "group": "intelsat",
        "lat": -1.2042066712128603,
        "lon": -58.78038808672458,
        "alt_km": 35776.26029409466,
        "timestamp": "2025-12-09T21:34:11.074645+00:00",
        "meta_object_name": "DIRECTV 9S",
        "meta_object_id": "2006-043A",
        "meta_epoch": "2025-12-09T13:13:51.873312",
        "meta_mean_motion": 1.00270727,
        "meta_eccentricity": 0.00031569,
        "meta_inclination": 1.9321,
        "meta_ra_of_asc_node": 83.2391,
        "meta_arg_of_pericenter": 178.3097,
        "meta_mean_anomaly": 274.2425,
        "meta_ephemeris_type": 0,
        "meta_classification_type": "U",
        "meta_norad_cat_id": 29494,
        "meta_element_set_no": 999,
        "meta_rev_at_epoch": 4948,
        "meta_bstar": 0,
        "meta_mean_motion_dot": -1.11e-06,
        "meta_mean_motion_ddot": 0,
        "tle_line1": "1 29494U 06043A   25343.55129483 -.00000111  00000+0  00000+0 0  9997",
        "tle_line2": "2 29494   1.9321  83.2391 0003156 178.3097 274.2425  1.00270727 49489"
      },
      "geometry": {
        "type": "Point",
        "coordinates": [
          -58.78038808672458,
          -1.2042066712128603
        ]
      }
    }
  ]
}